NORAD_CAT_ID,OBJECT_NAME,OBJECT_TYPE,EPOCH,MEAN_MOTION,ECCENTRICITY,INCLINATION,RA_OF_ASC_NODE,ARG_OF_PERICENTER,MEAN_ANOMALY,BSTAR,MEAN_MOTION_DOT,MEAN_MOTION_DDOT,TLE_LINE0,TLE_LINE1,TLE_LINE2,SEMIMAJOR_AXIS,PERIOD,APOGEE,PERIGEE,DECAYED
52558.0,STARLINK-3954,PAYLOAD,2023-02-23 23:57:46,15.08848062,0.0001583,53.2183,60.7152,88.8258,271.2916,0.0007453,0.00011596,0.0,0 STARLINK-3954,1 52558U 22051AB  23054.99845260  .00011596  00000-0  74530-3 0  9996,2 52558  53.2183  60.7152 0001583  88.8258 271.2916 15.08848062 44127,6917.856,95.437,540.816,538.626,0.0
52558.0,STARLINK-3954,PAYLOAD,2023-02-24 12:40:50,15.08865826,0.0001132,53.2158,58.3369,92.4749,267.6373,0.00081298,0.00012683,0.0,0 STARLINK-3954,1 52558U 22051AB  23055.52836289  .00012683  00000-0  81298-3 0  9994,2 52558  53.2158  58.3369 0001132  92.4749 267.6373 15.08865826 44132,6917.801,95.436,540.45,538.883,0.0
52558.0,STARLINK-3954,PAYLOAD,2023-02-24 17:27:00,15.08830199,0.0001068,53.2175,57.4449,87.3213,272.7901,-0.00048741,-8.034e-05,0.0,0 STARLINK-3954,1 52558U 22051AB  23055.72708904 -.00008034  00000-0 -48741-3 0  9991,2 52558  53.2175  57.4449 0001068  87.3213 272.7901 15.08830199 44237,6917.91,95.438,540.514,539.037,0.0
52558.0,STARLINK-3954,PAYLOAD,2023-02-25 10:56:15,15.08840031,0.0001225,53.2171,54.1742,79.6902,280.4228,0.00059171,9.142e-05,0.0,0 STARLINK-3954,1 52558U 22051AB  23056.45573287  .00009142  00000-0  59171-3 0  9994,2 52558  53.2171  54.1742 0001225  79.6902 280.4228 15.08840031 44343,6917.88,95.438,540.593,538.898,0.0
52558.0,STARLINK-3954,PAYLOAD,2023-02-25 17:17:48,15.08837185,0.000128,53.2171,52.9849,77.3149,282.7986,0.00072513,0.0001127,0.0,0 STARLINK-3954,1 52558U 22051AB  23056.72069591  .00011270  00000-0  72513-3 0  9992,2 52558  53.2171  52.9849 0001280  77.3149 282.7986 15.08837185 44315,6917.889,95.438,540.639,538.869,0.0
52558.0,STARLINK-3954,PAYLOAD,2023-02-26 10:47:01,15.08871221,0.0001297,53.2177,49.7133,82.6204,277.4936,0.001322,0.00020832,0.0,0 STARLINK-3954,1 52558U 22051AB  23057.44932802  .00020832  00000-0  13220-2 0  9999,2 52558  53.2177  49.7133 0001297  82.6204 277.4936 15.08871221 44427,6917.785,95.436,540.547,538.753,0.0
52558.0,STARLINK-3954,PAYLOAD,2023-02-27 05:51:39,15.08859868,0.0001156,53.2182,46.1447,89.817,270.2955,0.00092368,0.00014451,0.0,0 STARLINK-3954,1 52558U 22051AB  23058.24420942  .00014451  00000-0  92368-3 0  9996,2 52558  53.2182  46.1447 0001156  89.8170 270.2955 15.08859868 44613,6917.82,95.436,540.484,538.885,0.0
52558.0,STARLINK-3954,PAYLOAD,2023-02-27 10:37:48,15.08866987,0.0001486,53.2185,45.2525,95.4911,264.6251,0.0012271,0.0001931,0.0,0 STARLINK-3954,1 52558U 22051AB  23058.44292779  .00019310  00000-0  12271-2 0  9996,2 52558  53.2185  45.2525 0001486  95.4911 264.6251 15.08866987 44576,6917.798,95.436,540.691,538.635,0.0
52558.0,STARLINK-3954,PAYLOAD,2023-02-28 05:42:26,15.08866726,0.0001331,53.2191,41.6864,81.5917,278.5226,0.0014937,0.00023582,0.0,0 STARLINK-3954,1 52558U 22051AB  23059.23780370  .00023582  00000-0  14937-2 0  9990,2 52558  53.2191  41.6864 0001331  81.5917 278.5226 15.08866726 44768,6917.799,95.436,540.584,538.743,0.0
52558.0,STARLINK-3954,PAYLOAD,2023-02-28 10:28:35,15.08887666,0.0001324,53.2186,40.7939,88.042,272.0724,0.0020813,0.00033035,0.0,0 STARLINK-3954,1 52558U 22051AB  23059.43651786  .00033035  00000-0  20813-2 0  9994,2 52558  53.2186  40.7939 0001324  88.0420 272.0724 15.08887666 44722,6917.735,95.435,540.516,538.684,0.0
52558.0,STARLINK-3954,PAYLOAD,2023-03-01 05:33:15,15.08797324,7.1e-05,53.219,37.2279,90.6227,269.4846,0.0013038,0.00020499,0.0,0 STARLINK-3954,1 52558U 22051AB  23060.23142580  .00020499  00000-0  13038-2 0  9992,2 52558  53.2190  37.2279 0000710  90.6227 269.4846 15.08797324 44914,6918.011,95.44,540.367,539.385,0.0
52558.0,STARLINK-3954,PAYLOAD,2023-03-01 08:44:01,15.08790187,6.19e-05,53.2185,36.6337,77.1585,282.9477,0.00097206,0.00015195,0.0,0 STARLINK-3954,1 52558U 22051AB  23060.36391109  .00015195  00000-0  97206-3 0  9996,2 52558  53.2185  36.6337 0000619  77.1585 282.9477 15.08790187 44933,6918.033,95.441,540.326,539.469,0.0
52558.0,STARLINK-3954,PAYLOAD,2023-03-01 15:05:34,15.08806003,6.04e-05,53.2183,35.4418,65.4968,294.6087,0.0014582,0.00022974,0.0,0 STARLINK-3954,1 52558U 22051AB  23060.62887454  .00022974  00000-0  14582-2 0  9996,2 52558  53.2183  35.4418 0000604  65.4968 294.6087 15.08806003 44973,6917.984,95.44,540.267,539.431,0.0
52558.0,STARLINK-3954,PAYLOAD,2023-03-02 03:48:39,15.08864927,5.77e-05,53.218,33.0649,80.2874,279.8183,0.0024982,0.00039722,0.0,0 STARLINK-3954,1 52558U 22051AB  23061.15879334  .00039722  00000-0  24982-2 0  9997,2 52558  53.2180  33.0649 0000577  80.2874 279.8183 15.08864927 45051,6917.804,95.436,540.068,539.27,0.0
52558.0,STARLINK-3954,PAYLOAD,2023-03-02 10:10:11,15.08883661,5.4e-05,53.2173,31.8741,75.0674,285.0378,0.0023137,0.00036771,0.0,0 STARLINK-3954,1 52558U 22051AB  23061.42374703  .00036771  00000-0  23137-2 0  9999,2 52558  53.2173  31.8741 0000540  75.0674 285.0378 15.08883661 45020,6917.747,95.435,539.985,539.238,0.0
52558.0,STARLINK-3954,PAYLOAD,2023-03-03 10:00:56,15.08910262,7.92e-05,53.2171,27.4131,98.8026,261.3056,0.0017493,0.00027716,0.0,0 STARLINK-3954,1 52558U 22051AB  23062.41732215  .00027716  00000-0  17493-2 0  9992,2 52558  53.2171  27.4131 0000792  98.8026 261.3056 15.08910262 45247,6917.666,95.433,540.079,538.983,0.0
52558.0,STARLINK-3954,PAYLOAD,2023-03-04 06:40:57,15.08885988,0.0001401,53.2181,23.5465,102.9117,257.2032,0.0030365,0.00048431,0.0,0 STARLINK-3954,1 52558U 22051AB  23063.27843959  .00048431  00000-0  30365-2 0  9995,2 52558  53.2181  23.5465 0001401 102.9117 257.2032 15.08885988 45379,6917.74,95.435,540.574,538.636,0.0
52558.0,STARLINK-3954,PAYLOAD,2023-03-04 20:59:26,15.08847559,0.0001793,53.2184,20.8754,73.8675,286.2514,0.0008769,0.00013698,0.0,0 STARLINK-3954,1 52558U 22051AB  23063.87460901  .00013698  00000-0  87690-3 0  9994,2 52558  53.2184  20.8754 0001793  73.8675 286.2514 15.08847559 45461,6917.857,95.437,540.963,538.482,0.0
52558.0,STARLINK-3954,PAYLOAD,2023-03-06 03:11:46,15.08874589,0.0001055,53.2191,15.2227,78.1773,281.9337,0.0018882,0.00029919,0.0,0 STARLINK-3954,1 52558U 22051AB  23065.13317243  .00029919  00000-0  18882-2 0  9994,2 52558  53.2191  15.2227 0001055  78.1773 281.9337 15.08874589 45659,6917.775,95.435,540.369,538.91,0.0
52558.0,STARLINK-3954,PAYLOAD,2023-03-06 20:41:01,15.08840397,0.0001466,53.2198,11.951,79.8489,280.2669,0.0010988,0.00017243,0.0,0 STARLINK-3954,1 52558U 22051AB  23065.86181901  .00017243  00000-0  10988-2 0  9990,2 52558  53.2198  11.9510 0001466  79.8489 280.2669 15.08840397 45764,6917.879,95.438,540.758,538.73,0.0
52558.0,STARLINK-3954,PAYLOAD,2023-03-07 03:02:33,15.08839378,7.58e-05,53.2196,10.7618,39.0788,321.0259,0.00049003,7.52e-05,0.0,0 STARLINK-3954,1 52558U 22051AB  23066.12677904  .00007520  00000-0  49003-3 0  9991,2 52558  53.2196  10.7618 0000758  39.0788 321.0259 15.08839378 45802,6917.882,95.438,540.272,539.223,0.0
52558.0,STARLINK-3954,PAYLOAD,2023-03-08 02:53:20,15.08862983,4.48e-05,53.2187,6.3018,40.8175,319.2851,0.0017281,0.00027339,0.0,0 STARLINK-3954,1 52558U 22051AB  23067.12037962  .00027339  00000-0  17281-2 0  9998,2 52558  53.2187   6.3018 0000448  40.8175 319.2851 15.08862983 45886,6917.81,95.436,539.985,539.365,0.0
52558.0,STARLINK-3954,PAYLOAD,2023-03-08 23:33:21,15.08847527,6.57e-05,53.2188,2.4382,94.4564,265.6504,0.00040652,6.189e-05,0.0,0 STARLINK-3954,1 52558U 22051AB  23067.98150001  .00006189  00000-0  40652-3 0  9991,2 52558  53.2188   2.4382 0000657  94.4564 265.6504 15.08847527 46086,6917.857,95.437,540.177,539.268,0.0
52558.0,STARLINK-3954,PAYLOAD,2023-03-09 05:54:53,15.08855945,7.47e-05,53.2186,1.2468,66.4464,293.6606,0.0005025,7.722e-05,0.0,0 STARLINK-3954,1 52558U 22051AB  23068.24645783  .00007722  00000-0  50250-3 0  9996,2 52558  53.2186   1.2468 0000747  66.4464 293.6606 15.08855945 46058,6917.832,95.437,540.213,539.18,0.0
52558.0,STARLINK-3954,PAYLOAD,2023-03-10 04:10:17,15.08874866,7.72e-05,53.2167,357.0842,111.0787,249.0288,0.0020606,0.0003269,0.0,0 STARLINK-3954,1 52558U 22051AB  23069.17381689  .00032690  00000-0  20606-2 0  9994,2 52558  53.2167 357.0842 0000772 111.0787 249.0288 15.08874866 46265,6917.774,95.435,540.173,539.105,0.0
52558.0,STARLINK-3954,PAYLOAD,2023-03-10 12:07:13,15.08838431,6.94e-05,53.2171,355.5971,95.773,264.3341,4.2528e-05,3.89e-06,0.0,0 STARLINK-3954,1 52558U 22051AB  23069.50501721  .00000389  00000-0  42528-4 0  9991,2 52558  53.2171 355.5971 0000694  95.7730 264.3341 15.08838431 46319,6917.885,95.438,540.23,539.27,0.0
52558.0,STARLINK-3954,PAYLOAD,2023-03-11 02:25:42,15.08837172,9.97e-05,53.2169,352.9198,147.6348,212.4705,0.00062091,9.607e-05,0.0,0 STARLINK-3954,1 52558U 22051AB  23070.10118405  .00009607  00000-0  62091-3 0  9990,2 52558  53.2169 352.9198 0000997 147.6348 212.4705 15.08837172 46405,6917.889,95.438,540.444,539.064,0.0
52558.0,STARLINK-3954,PAYLOAD,2023-03-11 18:19:34,15.08834046,0.0001127,53.2163,349.9486,86.6013,273.5108,0.00057584,8.887e-05,0.0,0 STARLINK-3954,1 52558U 22051AB  23070.76359448  .00008887  00000-0  57584-3 0  9996,2 52558  53.2163 349.9486 0001127  86.6013 273.5108 15.08834046 46505,6917.899,95.438,540.543,538.984,0.0
52558.0,STARLINK-3954,PAYLOAD,2023-03-12 07:02:38,15.08871203,9.18e-05,53.2177,347.5662,82.2234,277.8863,0.001287,0.00020271,0.0,0 STARLINK-3954,1 52558U 22051AB  23071.29350536  .00020271  00000-0  12870-2 0  9993,2 52558  53.2177 347.5662 0000918  82.2234 277.8863 15.08871203 46583,6917.785,95.436,540.285,539.015,0.0
52558.0,STARLINK-3954,PAYLOAD,2023-03-12 18:10:21,15.08839344,0.0001115,53.2174,345.4874,71.276,288.8353,-9.4826e-05,-1.797e-05,0.0,0 STARLINK-3954,1 52558U 22051AB  23071.75719264 -.00001797  00000-0 -94826-4 0  9998,2 52558  53.2174 345.4874 0001115  71.2760 288.8353 15.08839344 46658,6917.882,95.438,540.519,538.976,0.0
